[{"OBJECT_NAME":"COSMOS 2428","OBJECT_ID":"2007-029A","EPOCH":"2026-03-09T23:01:40.069056","MEAN_MOTION":14.1294624,"ECCENTRICITY":0.00091204,"INCLINATION":70.9433,"RA_OF_ASC_NODE":202.7763,"ARG_OF_PERICENTER":276.7113,"MEAN_ANOMALY":83.297,"EPHEMERIS_TYPE":0,"CLASSIFICATION_TYPE":"U","NORAD_CAT_ID":31792,"ELEMENT_SET_NO":999,"REV_AT_EPOCH":96413,"BSTAR":6.0875257e-5,"MEAN_MOTION_DOT":6.6e-7,"MEAN_MOTION_DDOT":0},{"OBJECT_NAME":"CZ-6A DEB","OBJECT_ID":"2024-140ACT","EPOCH":"2026-03-09T12:39:27.726336","MEAN_MOTION":14.10312874,"ECCENTRICITY":0.01033248,"INCLINATION":88.8539,"RA_OF_ASC_NODE":277.769,"ARG_OF_PERICENTER":191.1821,"MEAN_ANOMALY":168.7068,"EPHEMERIS_TYPE":0,"CLASSIFICATION_TYPE":"U","NORAD_CAT_ID":61827,"ELEMENT_SET_NO":999,"REV_AT_EPOCH":7659,"BSTAR":0.0018690246,"MEAN_MOTION_DOT":3.497e-5,"MEAN_MOTION_DDOT":0}]
